{
  "type": "FeatureCollection",
  "features": [
    {
      "type": "Feature",
      "properties": {
        "norad_id": 31664,
        "name": "FENGYUN 1C DEB",
        "group": "fengyun-1c-debris",
        "lat": -39.94064737369223,
        "lon": -19.458461674797675,
        "alt_km": 939.731725078519,
        "timestamp": "2025-12-07T11:27:50.285986+00:00",
        "meta_object_name": "FENGYUN 1C DEB",
        "meta_object_id": "1999-025CBW",
        "meta_epoch": "2025-12-05T22:11:58.535520",
        "meta_mean_motion": 14.1028305,
        "meta_eccentricity": 0.01245233,
        "meta_inclination": 98.7515,
        "meta_ra_of_asc_node": 331.6195,
        "meta_arg_of_pericenter": 177.3939,
        "meta_mean_anomaly": 182.7907,
        "meta_ephemeris_type": 0,
        "meta_classification_type": "U",
        "meta_norad_cat_id": 31664,
        "meta_element_set_no": 999,
        "meta_rev_at_epoch": 95905,
        "meta_bstar": 0.00052712163,
        "meta_mean_motion_dot": 9.62e-06,
        "meta_mean_motion_ddot": 0,
        "tle_line1": "1 31664U 99025CBW 25339.92498305  .00000962  00000+0  52712-3 0  9993",
        "tle_line2": "2 31664  98.7515 331.6195 0124523 177.3939 182.7907 14.10283050959057"
      },
      "geometry": {
        "type": "Point",
        "coordinates": [
          -19.458461674797675,
          -39.94064737369223
        ]
      }
    },
    {
      "type": "Feature",
      "properties": {
        "norad_id": 31665,
        "name": "FENGYUN 1C DEB",
        "group": "fengyun-1c-debris",
        "lat": 73.40417228133124,
        "lon": -125.12580124975702,
        "alt_km": 954.1548942488143,
        "timestamp": "2025-12-07T11:27:50.285996+00:00",
        "meta_object_name": "FENGYUN 1C DEB",
        "meta_object_id": "1999-025CBX",
        "meta_epoch": "2025-12-05T20:47:51.749952",
        "meta_mean_motion": 13.84788429,
        "meta_eccentricity": 0.01894265,
        "meta_inclination": 98.4497,
        "meta_ra_of_asc_node": 23.5047,
        "meta_arg_of_pericenter": 205.7041,
        "meta_mean_anomaly": 153.4609,
        "meta_ephemeris_type": 0,
        "meta_classification_type": "U",
        "meta_norad_cat_id": 31665,
        "meta_element_set_no": 999,
        "meta_rev_at_epoch": 93096,
        "meta_bstar": 0.0020157681,
        "meta_mean_motion_dot": 2.573e-05,
        "meta_mean_motion_ddot": 0,
        "tle_line1": "1 31665U 99025CBX 25339.86657118  .00002573  00000+0  20158-2 0  9994",
        "tle_line2": "2 31665  98.4497  23.5047 0189426 205.7041 153.4609 13.84788429930963"
      },
      "geometry": {
        "type": "Point",
        "coordinates": [
          -125.12580124975702,
          73.40417228133124
        ]
      }
    },
    {
      "type": "Feature",
      "properties": {
        "norad_id": 31666,
        "name": "FENGYUN 1C DEB",
        "group": "fengyun-1c-debris",
        "lat": 73.19216485905584,
        "lon": -20.013360002204376,
        "alt_km": 603.9041014601171,
        "timestamp": "2025-12-07T11:27:50.286006+00:00",
        "meta_object_name": "FENGYUN 1C DEB",
        "meta_object_id": "1999-025CBY",
        "meta_epoch": "2025-12-06T22:02:31.599456",
        "meta_mean_motion": 14.83277188,
        "meta_eccentricity": 0.00254017,
        "meta_inclination": 98.6531,
        "meta_ra_of_asc_node": 129.1065,
        "meta_arg_of_pericenter": 170.033,
        "meta_mean_anomaly": 190.139,
        "meta_ephemeris_type": 0,
        "meta_classification_type": "U",
        "meta_norad_cat_id": 31666,
        "meta_element_set_no": 999,
        "meta_rev_at_epoch": 97185,
        "meta_bstar": 0.0063860544,
        "meta_mean_motion_dot": 0.00052864,
        "meta_mean_motion_ddot": 0,
        "tle_line1": "1 31666U 99025CBY 25340.91842129  .00052864  00000+0  63861-2 0  9997",
        "tle_line2": "2 31666  98.6531 129.1065 0025401 170.0330 190.1390 14.83277188971858"
      },
      "geometry": {
        "type": "Point",
        "coordinates": [
          -20.013360002204376,
          73.19216485905584
        ]
      }
    },
    {
      "type": "Feature",
      "properties": {
        "norad_id": 31667,
        "name": "FENGYUN 1C DEB",
        "group": "fengyun-1c-debris",
        "lat": -80.79010336740481,
        "lon": -85.97932371283517,
        "alt_km": 857.3594695871479,
        "timestamp": "2025-12-07T11:27:50.286016+00:00",
        "meta_object_name": "FENGYUN 1C DEB",
        "meta_object_id": "1999-025CBZ",
        "meta_epoch": "2025-12-03T10:02:22.672608",
        "meta_mean_motion": 14.2348358,
        "meta_eccentricity": 0.00516043,
        "meta_inclination": 99.0856,
        "meta_ra_of_asc_node": 189.1139,
        "meta_arg_of_pericenter": 113.7693,
        "meta_mean_anomaly": 246.8908,
        "meta_ephemeris_type": 0,
        "meta_classification_type": "U",
        "meta_norad_cat_id": 31667,
        "meta_element_set_no": 999,
        "meta_rev_at_epoch": 55860,
        "meta_bstar": 0.0003571101,
        "meta_mean_motion_dot": 7.76e-06,
        "meta_mean_motion_ddot": 0,
        "tle_line1": "1 31667U 99025CBZ 25337.41831797  .00000776  00000+0  35711-3 0  9997",
        "tle_line2": "2 31667  99.0856 189.1139 0051604 113.7693 246.8908 14.23483580558609"
      },
      "geometry": {
        "type": "Point",
        "coordinates": [
          -85.97932371283517,
          -80.79010336740481
        ]
      }
    },
    {
      "type": "Feature",
      "properties": {
        "norad_id": 31672,
        "name": "FENGYUN 1C DEB",
        "group": "fengyun-1c-debris",
        "lat": -8.818641167220736,
        "lon": -12.66340416101857,
        "alt_km": 802.2337138267167,
        "timestamp": "2025-12-07T11:27:50.286026+00:00",
        "meta_object_name": "FENGYUN 1C DEB",
        "meta_object_id": "1999-025CCE",
        "meta_epoch": "2025-12-05T18:52:14.443392",
        "meta_mean_motion": 14.50788876,
        "meta_eccentricity": 0.01081402,
        "meta_inclination": 98.9567,
        "meta_ra_of_asc_node": 166.9392,
        "meta_arg_of_pericenter": 2.6293,
        "meta_mean_anomaly": 357.5445,
        "meta_ephemeris_type": 0,
        "meta_classification_type": "U",
        "meta_norad_cat_id": 31672,
        "meta_element_set_no": 999,
        "meta_rev_at_epoch": 64770,
        "meta_bstar": 0.0027708816,
        "meta_mean_motion_dot": 0.0001173,
        "meta_mean_motion_ddot": 0,
        "tle_line1": "1 31672U 99025CCE 25339.78627828  .00011730  00000+0  27709-2 0  9992",
        "tle_line2": "2 31672  98.9567 166.9392 0108140   2.6293 357.5445 14.50788876647708"
      },
      "geometry": {
        "type": "Point",
        "coordinates": [
          -12.66340416101857,
          -8.818641167220736
        ]
      }
    },
    {
      "type": "Feature",
      "properties": {
        "norad_id": 31673,
        "name": "FENGYUN 1C DEB",
        "group": "fengyun-1c-debris",
        "lat": 0.4228410444391908,
        "lon": -4.399080199191617,
        "alt_km": 825.7912966427984,
        "timestamp": "2025-12-07T11:27:50.286036+00:00",
        "meta_object_name": "FENGYUN 1C DEB",
        "meta_object_id": "1999-025CCF",
        "meta_epoch": "2025-12-06T19:32:52.185696",
        "meta_mean_motion": 14.31931817,
        "meta_eccentricity": 0.0125798,
        "meta_inclination": 99.3749,
        "meta_ra_of_asc_node": 174.815,
        "meta_arg_of_pericenter": 66.0098,
        "meta_mean_anomaly": 295.4194,
        "meta_ephemeris_type": 0,
        "meta_classification_type": "U",
        "meta_norad_cat_id": 31673,
        "meta_element_set_no": 999,
        "meta_rev_at_epoch": 64806,
        "meta_bstar": 0.00037540559,
        "meta_mean_motion_dot": 1.046e-05,
        "meta_mean_motion_ddot": 0,
        "tle_line1": "1 31673U 99025CCF 25340.81449289  .00001046  00000+0  37541-3 0  9997",
        "tle_line2": "2 31673  99.3749 174.8150 0125798  66.0098 295.4194 14.31931817648066"
      },
      "geometry": {
        "type": "Point",
        "coordinates": [
          -4.399080199191617,
          0.4228410444391908
        ]
      }
    },
    {
      "type": "Feature",
      "properties": {
        "norad_id": 31674,
        "name": "FENGYUN 1C DEB",
        "group": "fengyun-1c-debris",
        "lat": -67.64257916941041,
        "lon": 39.92630001793246,
        "alt_km": 710.5404894421554,
        "timestamp": "2025-12-07T11:27:50.286046+00:00",
        "meta_object_name": "FENGYUN 1C DEB",
        "meta_object_id": "1999-025CCG",
        "meta_epoch": "2025-12-05T08:30:03.134016",
        "meta_mean_motion": 14.51617675,
        "meta_eccentricity": 0.00240582,
        "meta_inclination": 98.9259,
        "meta_ra_of_asc_node": 15.2079,
        "meta_arg_of_pericenter": 307.9114,
        "meta_mean_anomaly": 51.9904,
        "meta_ephemeris_type": 0,
        "meta_classification_type": "U",
        "meta_norad_cat_id": 31674,
        "meta_element_set_no": 999,
        "meta_rev_at_epoch": 64507,
        "meta_bstar": 0.0051157727,
        "meta_mean_motion_dot": 0.00020586,
        "meta_mean_motion_ddot": 0,
        "tle_line1": "1 31674U 99025CCG 25339.35420294  .00020586  00000+0  51158-2 0  9999",
        "tle_line2": "2 31674  98.9259  15.2079 0024058 307.9114  51.9904 14.51617675645076"
      },
      "geometry": {
        "type": "Point",
        "coordinates": [
          39.92630001793246,
          -67.64257916941041
        ]
      }
    }
  ]
}